[{"OBJECT_NAME":"STARLINK-35649","OBJECT_ID":"2025-237M","EPOCH":"2026-03-09T22:35:32.374752","MEAN_MOTION":15.3021073,"ECCENTRICITY":0.00012282,"INCLINATION":53.161,"RA_OF_ASC_NODE":38.1301,"ARG_OF_PERICENTER":100.9783,"MEAN_ANOMALY":259.1356,"EPHEMERIS_TYPE":0,"CLASSIFICATION_TYPE":"U","NORAD_CAT_ID":66125,"ELEMENT_SET_NO":999,"REV_AT_EPOCH":2265,"BSTAR":0.00081774871,"MEAN_MOTION_DOT":0.00023946,"MEAN_MOTION_DDOT":0},{"OBJECT_NAME":"FENGYUN 1C DEB","OBJECT_ID":"1999-025DNE","EPOCH":"2026-03-03T04:32:20.578848","MEAN_MOTION":15.05751159,"ECCENTRICITY":0.01321557,"INCLINATION":98.9662,"RA_OF_ASC_NODE":53.9178,"ARG_OF_PERICENTER":282.0758,"MEAN_ANOMALY":76.5683,"EPHEMERIS_TYPE":0,"CLASSIFICATION_TYPE":"U","NORAD_CAT_ID":35174,"ELEMENT_SET_NO":999,"REV_AT_EPOCH":91373,"BSTAR":0.0030573957,"MEAN_MOTION_DOT":0.00054187,"MEAN_MOTION_DDOT":0}]
